{"type": "FeatureCollection", "features": [ {"type": "Feature", "properties": {"norad_id": 43108, "name": "BEIDOU-3 M8 (C28)", "group": "beidou", "lat": 1.6576320234685795, "lon": -50.45571393684737, "alt_km": 21526.48040240568, "timestamp": "2025-12-24T18:55:56.333671+00:00", "meta": {"OBJECT_NAME": "BEIDOU-3 M8 (C28)", "OBJECT_ID": "2018-003B", "EPOCH": "2025-12-23T17:05:08.287008", "MEAN_MOTION": 1.86231111, "ECCENTRICITY": 0.00045887, "INCLINATION": 54.4799, "RA_OF_ASC_NODE": 308.4164, "ARG_OF_PERICENTER": 279.1065, "MEAN_ANOMALY": 80.8458, "EPHEMERIS_TYPE": 0, "CLASSIFICATION_TYPE": "U", "NORAD_CAT_ID": 43108, "ELEMENT_SET_NO": 999, "REV_AT_EPOCH": 5409, "BSTAR": 0, "MEAN_MOTION_DOT": -5.4e-07, "MEAN_MOTION_DDOT": 0}, "tle": {"line1": "1 43108U 18003B   25357.71190147 -.00000054  00000+0  00000+0 0  9998", "line2": "2 43108  54.4799 308.4164 0004588 279.1065  80.8458  1.86231111 54092"}}, "geometry": {"type": "Point", "coordinates": [-50.45571393684737, 1.6576320234685795]}}, {"type": "Feature", "properties": {"norad_id": 43207, "name": "BEIDOU-3 M4 (C22)", "group": "beidou", "lat": 49.49681807680566, "lon": 119.6869624908393, "alt_km": 21516.80708714967, "timestamp": "2025-12-24T18:55:56.333683+00:00", "meta": {"OBJECT_NAME": "BEIDOU-3 M4 (C22)", "OBJECT_ID": "2018-018A", "EPOCH": "2025-12-24T03:41:38.933376", "MEAN_MOTION": 1.86231211, "ECCENTRICITY": 0.00041659, "INCLINATION": 56.4949, "RA_OF_ASC_NODE": 68.9271, "ARG_OF_PERICENTER": 3.2866, "MEAN_ANOMALY": 356.7703, "EPHEMERIS_TYPE": 0, "CLASSIFICATION_TYPE": "U", "NORAD_CAT_ID": 43207, "ELEMENT_SET_NO": 999, "REV_AT_EPOCH": 5348, "BSTAR": 0, "MEAN_MOTION_DOT": -2.4e-07, "MEAN_MOTION_DDOT": 0}, "tle": {"line1": "1 43207U 18018A   25358.15392284 -.00000024  00000+0  00000+0 0  9996", "line2": "2 43207  56.4949  68.9271 0004165   3.2866 356.7703  1.86231211 53485"}}, "geometry": {"type": "Point", "coordinates": [119.6869624908393, 49.49681807680566]}}, {"type": "Feature", "properties": {"norad_id": 43208, "name": "BEIDOU-3 M3 (C21)", "group": "beidou", "lat": 17.484230113547216, "lon": 80.95699196672984, "alt_km": 21518.36610023935, "timestamp": "2025-12-24T18:55:56.333694+00:00", "meta": {"OBJECT_NAME": "BEIDOU-3 M3 (C21)", "OBJECT_ID": "2018-018B", "EPOCH": "2025-12-24T05:17:24.764064", "MEAN_MOTION": 1.86231449, "ECCENTRICITY": 0.00070747, "INCLINATION": 56.4943, "RA_OF_ASC_NODE": 68.9291, "ARG_OF_PERICENTER": 313.8802, "MEAN_ANOMALY": 46.1157, "EPHEMERIS_TYPE": 0, "CLASSIFICATION_TYPE": "U", "NORAD_CAT_ID": 43208, "ELEMENT_SET_NO": 999, "REV_AT_EPOCH": 5348, "BSTAR": 0, "MEAN_MOTION_DOT": -2.4e-07, "MEAN_MOTION_DDOT": 0}, "tle": {"line1": "1 43208U 18018B   25358.22042551 -.00000024  00000+0  00000+0 0  9994", "line2": "2 43208  56.4943  68.9291 0007074 313.8802  46.1157  1.86231449 53480"}}, "geometry": {"type": "Point", "coordinates": [80.95699196672984, 17.484230113547216]}}, {"type": "Feature", "properties": {"norad_id": 43245, "name": "BEIDOU-3 M9 (C29)", "group": "beidou", "lat": -42.41840091193776, "lon": 166.9461082141075, "alt_km": 21530.720239942915, "timestamp": "2025-12-24T18:55:56.333705+00:00", "meta": {"OBJECT_NAME": "BEIDOU-3 M9 (C29)", "OBJECT_ID": "2018-029A", "EPOCH": "2025-12-23T21:35:38.632416", "MEAN_MOTION": 1.86228339, "ECCENTRICITY": 0.000155, "INCLINATION": 54.3557, "RA_OF_ASC_NODE": 306.0793, "ARG_OF_PERICENTER": 289.9635, "MEAN_ANOMALY": 70.0266, "EPHEMERIS_TYPE": 0, "CLASSIFICATION_TYPE": "U", "NORAD_CAT_ID": 43245, "ELEMENT_SET_NO": 999, "REV_AT_EPOCH": 5263, "BSTAR": 0, "MEAN_MOTION_DOT": -5.2e-07, "MEAN_MOTION_DDOT": 0}, "tle": {"line1": "1 43245U 18029A   25357.89975269 -.00000052  00000+0  00000+0 0  9991", "line2": "2 43245  54.3557 306.0793 0001550 289.9635  70.0266  1.86228339 52639"}}, "geometry": {"type": "Point", "coordinates": [166.9461082141075, -42.41840091193776]}}, {"type": "Feature", "properties": {"norad_id": 43246, "name": "BEIDOU-3 M10 (C30)", "group": "beidou", "lat": -53.2820967337434, "lon": -127.91255628997075, "alt_km": 21532.670893626426, "timestamp": "2025-12-24T18:55:56.333716+00:00", "meta": {"OBJECT_NAME": "BEIDOU-3 M10 (C30)", "OBJECT_ID": "2018-029B", "EPOCH": "2025-12-23T07:09:06.922656", "MEAN_MOTION": 1.86229257, "ECCENTRICITY": 0.00043036, "INCLINATION": 54.3535, "RA_OF_ASC_NODE": 306.127, "ARG_OF_PERICENTER": 3.3658, "MEAN_ANOMALY": 356.6419, "EPHEMERIS_TYPE": 0, "CLASSIFICATION_TYPE": "U", "NORAD_CAT_ID": 43246, "ELEMENT_SET_NO": 999, "REV_AT_EPOCH": 5260, "BSTAR": 0, "MEAN_MOTION_DOT": -5.3e-07, "MEAN_MOTION_DDOT": 0}, "tle": {"line1": "1 43246U 18029B   25357.29799679 -.00000053  00000+0  00000+0 0  9996", "line2": "2 43246  54.3535 306.1270 0004303   3.3658 356.6419  1.86229257 52609"}}, "geometry": {"type": "Point", "coordinates": [-127.91255628997075, -53.2820967337434]}}, {"type": "Feature", "properties": {"norad_id": 43539, "name": "BEIDOU-2 IGSO-7 (C16)", "group": "beidou", "lat": -28.680390869510877, "lon": 142.14955818272426, "alt_km": 35785.12318656173, "timestamp": "2025-12-24T18:55:56.333727+00:00", "meta": {"OBJECT_NAME": "BEIDOU-2 IGSO-7 (C16)", "OBJECT_ID": "2018-057A", "EPOCH": "2025-12-23T21:03:51.666912", "MEAN_MOTION": 1.00254881, "ECCENTRICITY": 0.00930582, "INCLINATION": 55.1784, "RA_OF_ASC_NODE": 164.5741, "ARG_OF_PERICENTER": 235.1099, "MEAN_ANOMALY": 119.1175, "EPHEMERIS_TYPE": 0, "CLASSIFICATION_TYPE": "U", "NORAD_CAT_ID": 43539, "ELEMENT_SET_NO": 999, "REV_AT_EPOCH": 2736, "BSTAR": 0, "MEAN_MOTION_DOT": -6.1e-07, "MEAN_MOTION_DDOT": 0}, "tle": {"line1": "1 43539U 18057A   25357.87768133 -.00000061  00000+0  00000+0 0  9996", "line2": "2 43539  55.1784 164.5741 0093058 235.1099 119.1175  1.00254881 27360"}}, "geometry": {"type": "Point", "coordinates": [142.14955818272426, -28.680390869510877]}}, {"type": "Feature", "properties": {"norad_id": 43581, "name": "BEIDOU-3 M5 (C23)", "group": "beidou", "lat": 38.97610158754952, "lon": -27.6767580286328, "alt_km": 21526.804721656783, "timestamp": "2025-12-24T18:55:56.333739+00:00", "meta": {"OBJECT_NAME": "BEIDOU-3 M5 (C23)", "OBJECT_ID": "2018-062A", "EPOCH": "2025-12-24T01:25:43.982112", "MEAN_MOTION": 1.86228769, "ECCENTRICITY": 0.0001922, "INCLINATION": 54.09, "RA_OF_ASC_NODE": 188.2582, "ARG_OF_PERICENTER": 1.0455, "MEAN_ANOMALY": 358.9913, "EPHEMERIS_TYPE": 0, "CLASSIFICATION_TYPE": "U", "NORAD_CAT_ID": 43581, "ELEMENT_SET_NO": 999, "REV_AT_EPOCH": 5037, "BSTAR": 0, "MEAN_MOTION_DOT": 1.01e-06, "MEAN_MOTION_DDOT": 0}, "tle": {"line1": "1 43581U 18062A   25358.05953683  .00000101  00000+0  00000+0 0  9990", "line2": "2 43581  54.0900 188.2582 0001922   1.0455 358.9913  1.86228769 50376"}}, "geometry": {"type": "Point", "coordinates": [-27.6767580286328, 38.97610158754952]}}, {"type": "Feature", "properties": {"norad_id": 43582, "name": "BEIDOU-3 M6 (C24)", "group": "beidou", "lat": -32.0353379426502, "lon": 35.202413228131704, "alt_km": 21553.910305793273, "timestamp": "2025-12-24T18:55:56.333751+00:00", "meta": {"OBJECT_NAME": "BEIDOU-3 M6 (C24)", "OBJECT_ID": "2018-062B", "EPOCH": "2025-12-23T22:08:28.739040", "MEAN_MOTION": 1.86229712, "ECCENTRICITY": 0.00078704, "INCLINATION": 54.0895, "RA_OF_ASC_NODE": 188.252, "ARG_OF_PERICENTER": 49.2706, "MEAN_ANOMALY": 310.8346, "EPHEMERIS_TYPE": 0, "CLASSIFICATION_TYPE": "U", "NORAD_CAT_ID": 43582, "ELEMENT_SET_NO": 999, "REV_AT_EPOCH": 5037, "BSTAR": 0, "MEAN_MOTION_DOT": 1e-06, "MEAN_MOTION_DDOT": 0}, "tle": {"line1": "1 43582U 18062B   25357.92255485  .00000100  00000+0  00000+0 0  9990", "line2": "2 43582  54.0895 188.2520 0007870  49.2706 310.8346  1.86229712 50379"}}, "geometry": {"type": "Point", "coordinates": [35.202413228131704, -32.0353379426502]}}, {"type": "Feature", "properties": {"norad_id": 43602, "name": "BEIDOU-3 M12 (C26)", "group": "beidou", "lat": -53.46867911667804, "lon": 84.18249606265393, "alt_km": 21553.65972311311, "timestamp": "2025-12-24T18:55:56.333762+00:00", "meta": {"OBJECT_NAME": "BEIDOU-3 M12 (C26)", "OBJECT_ID": "2018-067A", "EPOCH": "2025-12-22T18:52:41.106432", "MEAN_MOTION": 1.86227882, "ECCENTRICITY": 0.0009247, "INCLINATION": 54.1835, "RA_OF_ASC_NODE": 187.0221, "ARG_OF_PERICENTER": 41.599, "MEAN_ANOMALY": 318.5103, "EPHEMERIS_TYPE": 0, "CLASSIFICATION_TYPE": "U", "NORAD_CAT_ID": 43602, "ELEMENT_SET_NO": 999, "REV_AT_EPOCH": 4983, "BSTAR": 0, "MEAN_MOTION_DOT": 9.5e-07, "MEAN_MOTION_DDOT": 0}, "tle": {"line1": "1 43602U 18067A   25356.78658688  .00000095  00000+0  00000+0 0  9996", "line2": "2 43602  54.1835 187.0221 0009247  41.5990 318.5103  1.86227882 49833"}}, "geometry": {"type": "Point", "coordinates": [84.18249606265393, -53.46867911667804]}}, {"type": "Feature", "properties": {"norad_id": 43603, "name": "BEIDOU-3 M11 (C25)", "group": "beidou", "lat": 6.202521693646102, "lon": 2.4167185863881318, "alt_km": 21538.853116737693, "timestamp": "2025-12-24T18:55:56.333773+00:00", "meta": {"OBJECT_NAME": "BEIDOU-3 M11 (C25)", "OBJECT_ID": "2018-067B", "EPOCH": "2025-12-23T23:52:51.123360", "MEAN_MOTION": 1.8622736, "ECCENTRICITY": 0.00056292, "INCLINATION": 54.1809, "RA_OF_ASC_NODE": 186.9452, "ARG_OF_PERICENTER": 37.7872, "MEAN_ANOMALY": 322.2863, "EPHEMERIS_TYPE": 0, "CLASSIFICATION_TYPE": "U", "NORAD_CAT_ID": 43603, "ELEMENT_SET_NO": 999, "REV_AT_EPOCH": 4988, "BSTAR": 0, "MEAN_MOTION_DOT": 1.01e-06, "MEAN_MOTION_DDOT": 0}, "tle": {"line1": "1 43603U 18067B   25357.99503615  .00000101  00000+0  00000+0 0  9998", "line2": "2 43603  54.1809 186.9452 0005629  37.7872 322.2863  1.86227360 49886"}}, "geometry": {"type": "Point", "coordinates": [2.4167185863881318, 6.202521693646102]}}]}